{"type":"Topology","bbox":[-71.15111902461796, 42.356569411131375, -71.06884327375327, 42.39564518440496],"transform":{"translate": [-71.15111902461796, 42.356569411131375], "scale": [8.22839792626079e-06, 3.907968124171197e-06]},"objects":{"RECREATION_Waterplay":{"type":"GeometryCollection","geometries":[{"type": "Point", "id": 1, "coordinates": [4414, 1479], "properties": {"Status": "Turned on", "PARK": "Riverside Press Park", "LOCATION": "River Street", "JOIN_ID": 346, "last_edited_date": "2026-07-07", "last_edited_user": "BMONROE", "Size": "Full"}},{"type": "Point", "id": 12, "coordinates": [2894, 8869], "properties": {"Status": "Turned on", "PARK": "Bergin Park", "LOCATION": "Haskell Street", "JOIN_ID": 80, "last_edited_date": "2026-07-07", "last_edited_user": "BMONROE", "Size": "Full"}},{"type": "Point", "id": 14, "coordinates": [4947, 2849], "properties": {"Status": "Turned on", "PARK": "Franklin Street Park", "LOCATION": "Franklin Street", "JOIN_ID": 283, "last_edited_date": "2026-07-07", "last_edited_user": "BMONROE", "Size": "Small"}},{"type": "Point", "id": 16, "coordinates": [4209, 6707], "properties": {"Status": "Turned on", "PARK": "Alden Park", "LOCATION": "Oxford Street", "JOIN_ID": 133, "last_edited_date": "2026-07-07", "last_edited_user": "BMONROE", "Size": "Small"}},{"type": "Point", "id": 18, "coordinates": [5285, 1172], "properties": {"Status": "Turned on", "PARK": "Dana Park", "LOCATION": "Magazine Street", "JOIN_ID": 366, "last_edited_date": "2026-07-07", "last_edited_user": "BMONROE", "Size": "Full"}},{"type": "Point", "id": 20, "coordinates": [6792, 2450], "properties": {"Status": "Turned on", "PARK": "Greene \u2022 Rose Heritage Park", "LOCATION": "Harvard Street", "JOIN_ID": 298, "last_edited_date": "2026-07-07", "last_edited_user": "BMONROE", "Size": "Full"}},{"type": "Point", "id": 21, "coordinates": [9999, 3177], "properties": {"Status": "Turned on", "PARK": "Richard McKinnon State Park", "LOCATION": "Education Circle", "JOIN_ID": 260, "last_edited_date": "2026-07-07", "last_edited_user": "BMONROE", "Size": "Full"}},{"type": "Point", "id": 23, "coordinates": [4323, 2176], "properties": {"Status": "Turned on", "PARK": "New Riverside Neighborhood Park", "LOCATION": "Western Ave", "JOIN_ID": 419, "last_edited_date": "2026-07-07", "last_edited_user": "BMONROE", "Size": "Full"}},{"type": "Point", "id": 25, "coordinates": [5263, 349], "properties": {"Status": "Turned on", "PARK": "David Nunes Park", "LOCATION": "Brookline Street", "JOIN_ID": 388, "last_edited_date": "2026-07-07", "last_edited_user": "BMONROE", "Size": "Full"}},{"type": "Point", "id": 27, "coordinates": [1815, 7649], "properties": {"Status": "Turned on", "PARK": "Universal Design Playground", "LOCATION": "Field Street", "JOIN_ID": 82, "last_edited_date": "2026-07-07", "last_edited_user": "BMONROE", "Size": "Full"}},{"type": "Point", "id": 29, "coordinates": [4747, 2629], "properties": {"Status": "Turned on", "PARK": "MLK School", "LOCATION": "Hayes St", "JOIN_ID": 284, "last_edited_date": "2026-07-07", "last_edited_user": "BMONROE", "Size": "Full"}},{"type": "Point", "id": 3, "coordinates": [4385, 2756], "properties": {"Status": "Turned on", "PARK": "Corporal Burns Park", "LOCATION": "Flagg Street", "JOIN_ID": 285, "last_edited_date": "2026-07-07", "last_edited_user": "BMONROE", "Size": "Full"}},{"type": "Point", "id": 32, "coordinates": [1653, 9730], "properties": {"Status": "Turned on", "PARK": "McCrehan Memorial Pool", "created_user": "BMONROE", "LOCATION": "Rindge Ave", "created_date": "2026-06-11", "JOIN_ID": 58, "last_edited_date": "2026-07-07", "last_edited_user": "BMONROE", "Size": "Full"}},{"type": "Point", "id": 34, "coordinates": [9431, 4076], "properties": {"Status": "Turned on", "PARK": "Maria Baldwin Courtyard", "created_user": "BMONROE", "LOCATION": "Between Jacobs and Water", "created_date": "2026-06-15", "last_edited_date": "2026-07-09", "last_edited_user": "BMONROE", "JOIN_ID": 470}},{"type": "Point", "id": 5, "coordinates": [7475, 4198], "properties": {"Status": "Turned on", "PARK": "Gannett/Warren Pals Park", "LOCATION": "Jefferson Street", "JOIN_ID": 209, "last_edited_date": "2026-07-07", "last_edited_user": "BMONROE", "Size": "Full"}},{"type": "Point", "id": 7, "coordinates": [6023, 3708], "properties": {"Status": "Turned on", "PARK": "Paine Park", "LOCATION": "St. Mary Road", "JOIN_ID": 238, "last_edited_date": "2026-07-07", "last_edited_user": "BMONROE", "Size": "Full"}},{"type": "Point", "id": 9, "coordinates": [2482, 9999], "properties": {"Status": "Turned on", "PARK": "Reverend Williams Park", "LOCATION": "Cedar Street", "JOIN_ID": 49, "last_edited_date": "2026-07-07", "last_edited_user": "BMONROE", "Size": "Full"}},{"type": "Point", "id": 11, "coordinates": [7968, 3168], "properties": {"Status": "Turned on", "PARK": "Ahern Field", "LOCATION": "Sixth Street", "JOIN_ID": 257, "last_edited_date": "2026-07-07", "last_edited_user": "BMONROE", "Size": "Full"}},{"type": "Point", "id": 13, "coordinates": [6152, 3034], "properties": {"Status": "Turned on", "PARK": "Sennott Park", "LOCATION": "Broadway", "JOIN_ID": 272, "last_edited_date": "2026-07-07", "last_edited_user": "BMONROE", "Size": "Full"}},{"type": "Point", "id": 15, "coordinates": [5709, 4287], "properties": {"Status": "Turned on", "PARK": "Maple Avenue Park", "LOCATION": "Maple Avenue", "JOIN_ID": 202, "last_edited_date": "2026-07-07", "last_edited_user": "BMONROE", "Size": "Small"}},{"type": "Point", "id": 17, "coordinates": [7175, 3790], "properties": {"Status": "Turned off", "PARK": "Donnelly Field", "LOCATION": "Willow Street", "JOIN_ID": 230, "last_edited_date": "2026-07-07", "last_edited_user": "BMONROE", "Size": "Full"}},{"type": "Point", "id": 19, "coordinates": [8119, 4070], "properties": {"Status": "Turned on", "PARK": "Gold Star Mothers Park", "LOCATION": "Gore Street", "JOIN_ID": 200, "last_edited_date": "2026-07-07", "last_edited_user": "BMONROE", "Size": "Full"}},{"type": "Point", "id": 2, "coordinates": [4737, 1741], "properties": {"Status": "Turned on", "PARK": "Hoyt Field", "LOCATION": "Montague Street", "JOIN_ID": 328, "last_edited_date": "2026-07-07", "last_edited_user": "BMONROE", "Size": "Full"}},{"type": "Point", "id": 22, "coordinates": [3632, 5317], "properties": {"Status": "Turned on", "PARK": "Cambridge Common", "LOCATION": "Waterhouse Street", "JOIN_ID": 154, "last_edited_date": "2026-07-07", "last_edited_user": "BMONROE", "Size": "Small"}},{"type": "Point", "id": 24, "coordinates": [5399, 196], "properties": {"Status": "Turned on", "PARK": "Fulmore Park", "LOCATION": "Sidney Street", "JOIN_ID": 394, "last_edited_date": "2026-07-07", "last_edited_user": "BMONROE", "Size": "Small"}},{"type": "Point", "id": 26, "coordinates": [4354, 0], "properties": {"Status": "Turned on", "PARK": "Veterans Memorial Pool Grounds", "LOCATION": "Memorial Drive", "JOIN_ID": 420, "last_edited_date": "2026-07-07", "last_edited_user": "BMONROE", "Size": "Full"}},{"type": "Point", "id": 28, "coordinates": [8640, 2481], "properties": {"Status": "Turned off", "PARK": "Timothy J. Toomey, Jr. Park", "LOCATION": "Rogers Street", "JOIN_ID": 434, "last_edited_date": "2026-07-07", "last_edited_user": "BMONROE", "Size": "Full"}},{"type": "Point", "id": 30, "coordinates": [0, 6063], "properties": {"Status": "Turned on", "PARK": "Glacken Field", "LOCATION": "Huron Avenue", "JOIN_ID": 140, "last_edited_date": "2026-07-07", "last_edited_user": "BMONROE", "Size": "Full"}},{"type": "Point", "id": 31, "coordinates": [9492, 4180], "properties": {"Status": "Turned on", "PARK": "William Dawes Field", "created_user": "BMONROE", "LOCATION": "Water Street", "created_date": "2026-06-10", "last_edited_date": "2026-07-09", "last_edited_user": "BMONROE", "JOIN_ID": 478}},{"type": "Point", "id": 33, "coordinates": [1460, 7304], "properties": {"Status": "Turned on", "PARK": "Father Callanan Playground", "created_user": "BMONROE", "LOCATION": "Tobin School", "created_date": "2026-06-11", "JOIN_ID": 119, "last_edited_date": "2026-07-07", "last_edited_user": "BMONROE", "Size": "Full"}},{"type": "Point", "id": 4, "coordinates": [5259, 3284], "properties": {"Status": "Turned on", "PARK": "Cooper Park", "LOCATION": "Hancock Street", "JOIN_ID": 262, "last_edited_date": "2026-07-07", "last_edited_user": "BMONROE", "Size": "Full"}},{"type": "Point", "id": 6, "coordinates": [8274, 3032], "properties": {"Status": "Turned on", "PARK": "Hurley Park", "LOCATION": "Hurley Street", "JOIN_ID": 278, "last_edited_date": "2026-07-07", "last_edited_user": "BMONROE", "Size": "Full"}},{"type": "Point", "id": 8, "coordinates": [6442, 1997], "properties": {"Status": "Turned on", "PARK": "Pine Street Park", "LOCATION": "Pine Street", "JOIN_ID": 324, "last_edited_date": "2026-07-07", "last_edited_user": "BMONROE", "Size": "Small"}},{"type": "Point", "id": 10, "coordinates": [2146, 8227], "properties": {"Status": "Turned on", "PARK": "Danehy Park", "LOCATION": "Sherman Street", "JOIN_ID": 82, "last_edited_date": "2026-07-07", "last_edited_user": "BMONROE", "Size": "Full"}}]}},"arcs":[]}