{"type":"FeatureCollection","features":[{"geometry": {"type": "Point", "coordinates": [-71.11479146235368, 42.36235093274882]}, "type": "Feature", "id": 1, "properties": {"Status": "Turned on", "PARK": "Riverside Press Park", "Size": "Full", "LOCATION": "River Street", "last_edited_date": "2026-07-07", "last_edited_user": "BMONROE", "JOIN_ID": 346}},{"geometry": {"type": "Point", "coordinates": [-71.11213753473427, 42.363374616476314]}, "type": "Feature", "id": 2, "properties": {"Status": "Turned on", "PARK": "Hoyt Field", "Size": "Full", "LOCATION": "Montague Street", "last_edited_date": "2026-07-07", "last_edited_user": "BMONROE", "JOIN_ID": 328}},{"geometry": {"type": "Point", "coordinates": [-71.11502985697066, 42.367340082187255]}, "type": "Feature", "id": 3, "properties": {"Status": "Turned on", "PARK": "Corporal Burns Park", "Size": "Full", "LOCATION": "Flagg Street", "last_edited_date": "2026-07-07", "last_edited_user": "BMONROE", "JOIN_ID": 285}},{"geometry": {"type": "Point", "coordinates": [-71.10784430596699, 42.369405017488326]}, "type": "Feature", "id": 4, "properties": {"Status": "Turned on", "PARK": "Cooper Park", "Size": "Full", "LOCATION": "Hancock Street", "last_edited_date": "2026-07-07", "last_edited_user": "BMONROE", "JOIN_ID": 262}},{"geometry": {"type": "Point", "coordinates": [-71.08960892230095, 42.37297829925289]}, "type": "Feature", "id": 5, "properties": {"Status": "Turned on", "PARK": "Gannett/Warren Pals Park", "Size": "Full", "LOCATION": "Jefferson Street", "last_edited_date": "2026-07-07", "last_edited_user": "BMONROE", "JOIN_ID": 209}},{"geometry": {"type": "Point", "coordinates": [-71.0830325260404, 42.36841868627797]}, "type": "Feature", "id": 6, "properties": {"Status": "Turned on", "PARK": "Hurley Park", "Size": "Full", "LOCATION": "Hurley Street", "last_edited_date": "2026-07-07", "last_edited_user": "BMONROE", "JOIN_ID": 278}},{"geometry": {"type": "Point", "coordinates": [-71.10155472490804, 42.371062971611266]}, "type": "Feature", "id": 7, "properties": {"Status": "Turned on", "PARK": "Paine Park", "Size": "Full", "LOCATION": "St. Mary Road", "last_edited_date": "2026-07-07", "last_edited_user": "BMONROE", "JOIN_ID": 238}},{"geometry": {"type": "Point", "coordinates": [-71.09810370400582, 42.36437486121498]}, "type": "Feature", "id": 8, "properties": {"Status": "Turned on", "PARK": "Pine Street Park", "Size": "Small", "LOCATION": "Pine Street", "last_edited_date": "2026-07-07", "last_edited_user": "BMONROE", "JOIN_ID": 324}},{"geometry": {"type": "Point", "coordinates": [-71.13069212767864, 42.39564518440496]}, "type": "Feature", "id": 9, "properties": {"Status": "Turned on", "PARK": "Reverend Williams Park", "Size": "Full", "LOCATION": "Cedar Street", "last_edited_date": "2026-07-07", "last_edited_user": "BMONROE", "JOIN_ID": 49}},{"geometry": {"type": "Point", "coordinates": [-71.13345667573334, 42.38872289329521]}, "type": "Feature", "id": 10, "properties": {"Status": "Turned on", "PARK": "Danehy Park", "Size": "Full", "LOCATION": "Sherman Street", "last_edited_date": "2026-07-07", "last_edited_user": "BMONROE", "JOIN_ID": 82}},{"geometry": {"type": "Point", "coordinates": [-71.08555072676525, 42.368952235180544]}, "type": "Feature", "id": 11, "properties": {"Status": "Turned on", "PARK": "Ahern Field", "Size": "Full", "LOCATION": "Sixth Street", "last_edited_date": "2026-07-07", "last_edited_user": "BMONROE", "JOIN_ID": 257}},{"geometry": {"type": "Point", "coordinates": [-71.1272983410146, 42.39123023243268]}, "type": "Feature", "id": 12, "properties": {"Status": "Turned on", "PARK": "Bergin Park", "Size": "Full", "LOCATION": "Haskell Street", "last_edited_date": "2026-07-07", "last_edited_user": "BMONROE", "JOIN_ID": 80}},{"geometry": {"type": "Point", "coordinates": [-71.10049054331168, 42.36842697612485]}, "type": "Feature", "id": 13, "properties": {"Status": "Turned on", "PARK": "Sennott Park", "Size": "Full", "LOCATION": "Broadway", "last_edited_date": "2026-07-07", "last_edited_user": "BMONROE", "JOIN_ID": 272}},{"geometry": {"type": "Point", "coordinates": [-71.11040587486652, 42.367706839418]}, "type": "Feature", "id": 14, "properties": {"Status": "Turned on", "PARK": "Franklin Street Park", "Size": "Small", "LOCATION": "Franklin Street", "last_edited_date": "2026-07-07", "last_edited_user": "BMONROE", "JOIN_ID": 283}},{"geometry": {"type": "Point", "coordinates": [-71.10413819172042, 42.37332292378795]}, "type": "Feature", "id": 15, "properties": {"Status": "Turned on", "PARK": "Maple Avenue Park", "Size": "Small", "LOCATION": "Maple Avenue", "last_edited_date": "2026-07-07", "last_edited_user": "BMONROE", "JOIN_ID": 202}},{"geometry": {"type": "Point", "coordinates": [-71.116484325111, 42.3827819959365]}, "type": "Feature", "id": 16, "properties": {"Status": "Turned on", "PARK": "Alden Park", "Size": "Small", "LOCATION": "Oxford Street", "last_edited_date": "2026-07-07", "last_edited_user": "BMONROE", "JOIN_ID": 133}},{"geometry": {"type": "Point", "coordinates": [-71.0920749190825, 42.37138450551946]}, "type": "Feature", "id": 17, "properties": {"Status": "Turned off", "PARK": "Donnelly Field", "Size": "Full", "LOCATION": "Willow Street", "last_edited_date": "2026-07-07", "last_edited_user": "BMONROE", "JOIN_ID": 230}},{"geometry": {"type": "Point", "coordinates": [-71.10762492279366, 42.361150327332915]}, "type": "Feature", "id": 18, "properties": {"Status": "Turned on", "PARK": "Dana Park", "Size": "Full", "LOCATION": "Magazine Street", "last_edited_date": "2026-07-07", "last_edited_user": "BMONROE", "JOIN_ID": 366}},{"geometry": {"type": "Point", "coordinates": [-71.0843057004829, 42.37247565481458]}, "type": "Feature", "id": 19, "properties": {"Status": "Turned on", "PARK": "Gold Star Mothers Park", "Size": "Full", "LOCATION": "Gore Street", "last_edited_date": "2026-07-07", "last_edited_user": "BMONROE", "JOIN_ID": 200}},{"geometry": {"type": "Point", "coordinates": [-71.09522701490889, 42.3661459639347]}, "type": "Feature", "id": 20, "properties": {"Status": "Turned on", "PARK": "Greene \u2022 Rose Heritage Park", "Size": "Full", "LOCATION": "Harvard Street", "last_edited_date": "2026-07-07", "last_edited_user": "BMONROE", "JOIN_ID": 298}},{"geometry": {"type": "Point", "coordinates": [-71.06884327375327, 42.36898578230703]}, "type": "Feature", "id": 21, "properties": {"Status": "Turned on", "PARK": "Richard McKinnon State Park", "Size": "Full", "LOCATION": "Education Circle", "last_edited_date": "2026-07-07", "last_edited_user": "BMONROE", "JOIN_ID": 260}},{"geometry": {"type": "Point", "coordinates": [-71.12122708443789, 42.377348115591836]}, "type": "Feature", "id": 22, "properties": {"Status": "Turned on", "PARK": "Cambridge Common", "Size": "Small", "LOCATION": "Waterhouse Street", "last_edited_date": "2026-07-07", "last_edited_user": "BMONROE", "JOIN_ID": 154}},{"geometry": {"type": "Point", "coordinates": [-71.11554439133042, 42.36507575051409]}, "type": "Feature", "id": 23, "properties": {"Status": "Turned on", "PARK": "New Riverside Neighborhood Park", "Size": "Full", "LOCATION": "Western Ave", "last_edited_date": "2026-07-07", "last_edited_user": "BMONROE", "JOIN_ID": 419}},{"geometry": {"type": "Point", "coordinates": [-71.10669095370801, 42.35733593277799]}, "type": "Feature", "id": 24, "properties": {"Status": "Turned on", "PARK": "Fulmore Park", "Size": "Small", "LOCATION": "Sidney Street", "last_edited_date": "2026-07-07", "last_edited_user": "BMONROE", "JOIN_ID": 394}},{"geometry": {"type": "Point", "coordinates": [-71.10781060490821, 42.35793438878859]}, "type": "Feature", "id": 25, "properties": {"Status": "Turned on", "PARK": "David Nunes Park", "Size": "Full", "LOCATION": "Brookline Street", "last_edited_date": "2026-07-07", "last_edited_user": "BMONROE", "JOIN_ID": 388}},{"geometry": {"type": "Point", "coordinates": [-71.11529219962198, 42.356569411131375]}, "type": "Feature", "id": 26, "properties": {"Status": "Turned on", "PARK": "Veterans Memorial Pool Grounds", "Size": "Full", "LOCATION": "Memorial Drive", "last_edited_date": "2026-07-07", "last_edited_user": "BMONROE", "JOIN_ID": 420}},{"geometry": {"type": "Point", "coordinates": [-71.1361831957059, 42.38646529956335]}, "type": "Feature", "id": 27, "properties": {"Status": "Turned on", "PARK": "Universal Design Playground", "Size": "Full", "LOCATION": "Field Street", "last_edited_date": "2026-07-07", "last_edited_user": "BMONROE", "JOIN_ID": 82}},{"geometry": {"type": "Point", "coordinates": [-71.08001871773358, 42.36626699862258]}, "type": "Feature", "id": 28, "properties": {"Status": "Turned off", "PARK": "Timothy J. Toomey, Jr. Park", "Size": "Full", "LOCATION": "Rogers Street", "last_edited_date": "2026-07-07", "last_edited_user": "BMONROE", "JOIN_ID": 434}},{"geometry": {"type": "Point", "coordinates": [-71.11205299712061, 42.36684535187402]}, "type": "Feature", "id": 29, "properties": {"Status": "Turned on", "PARK": "MLK School", "Size": "Full", "LOCATION": "Hayes St", "last_edited_date": "2026-07-07", "last_edited_user": "BMONROE", "JOIN_ID": 284}},{"geometry": {"type": "Point", "coordinates": [-71.15111902461796, 42.3802659520903]}, "type": "Feature", "id": 30, "properties": {"Status": "Turned on", "PARK": "Glacken Field", "Size": "Full", "LOCATION": "Huron Avenue", "last_edited_date": "2026-07-07", "last_edited_user": "BMONROE", "JOIN_ID": 140}},{"geometry": {"type": "Point", "coordinates": [-71.07301298298307, 42.37290549353081]}, "type": "Feature", "id": 31, "properties": {"Status": "Turned on", "PARK": "William Dawes Field", "created_user": "BMONROE", "LOCATION": "Water Street", "created_date": "2026-06-10", "last_edited_date": "2026-07-09", "last_edited_user": "BMONROE", "JOIN_ID": 478}},{"geometry": {"type": "Point", "coordinates": [-71.13751584243893, 42.39459500817907]}, "type": "Feature", "id": 32, "properties": {"Status": "Turned on", "PARK": "McCrehan Memorial Pool", "created_user": "BMONROE", "Size": "Full", "LOCATION": "Rindge Ave", "created_date": "2026-06-11", "last_edited_date": "2026-07-07", "last_edited_user": "BMONROE", "JOIN_ID": 58}},{"geometry": {"type": "Point", "coordinates": [-71.13910400279987, 42.38511439145212]}, "type": "Feature", "id": 33, "properties": {"Status": "Turned on", "PARK": "Father Callanan Playground", "created_user": "BMONROE", "Size": "Full", "LOCATION": "Tobin School", "created_date": "2026-06-11", "last_edited_date": "2026-07-07", "last_edited_user": "BMONROE", "JOIN_ID": 119}},{"geometry": {"type": "Point", "coordinates": [-71.07350955973412, 42.37250054915426]}, "type": "Feature", "id": 34, "properties": {"Status": "Turned on", "PARK": "Maria Baldwin Courtyard", "created_user": "BMONROE", "LOCATION": "Between Jacobs and Water", "created_date": "2026-06-15", "last_edited_date": "2026-07-09", "last_edited_user": "BMONROE", "JOIN_ID": 470}}]}