{"type": "Topology", "objects": {"data": {"geometries": [{"properties": {"OBJECTID": 1, "Address": "15 Lambert St", "W_P": "1-3", "LOCATION": "Miller River Apartments", "LOCATION_NOTE": "Cambridge Street Entrance", "GlobalID": "{7DDD2607-2FCC-434F-9718-525E32ACDA46}", "EditDate": null, "Sort": 4, "created_date": null, "last_edited_date": 1651669610000}, "type": "Point", "coordinates": [83456, 36906], "id": 1}, {"properties": {"OBJECTID": 2, "Address": "131 Washington St", "W_P": "3-1", "LOCATION": "Pisani Center", "LOCATION_NOTE": " ", "GlobalID": "{2EE29186-F542-451F-929E-3BC59ADBDDDD}", "EditDate": "2022", "Sort": 9, "created_date": null, "last_edited_date": 1651669610000}, "type": "Point", "coordinates": [74696, 20410], "id": 2}, {"properties": {"OBJECTID": 3, "Address": "402 Massachusetts Ave", "W_P": "5-1", "LOCATION": "Salvation Army Headquarters", "LOCATION_NOTE": " ", "GlobalID": "{57B81DEF-3AB0-466C-8CAA-9564844B1FC2}", "EditDate": "2022", "Sort": 17, "created_date": null, "last_edited_date": 1651669610000}, "type": "Point", "coordinates": [67199, 16463], "id": 3}, {"properties": {"OBJECTID": 4, "Address": "795 Massachusetts Ave", "W_P": "3-3", "LOCATION": "City Hall", "LOCATION_NOTE": "Driveway Entrance", "GlobalID": "{EC936E26-70F2-495E-B8B6-F443D91BF315}", "EditDate": "2022", "Sort": 11, "created_date": null, "last_edited_date": 1651669610000}, "type": "Point", "coordinates": [60694, 25623], "id": 4}, {"properties": {"OBJECTID": 5, "Address": "344 Broadway", "W_P": "6-1", "LOCATION": "City Hall Annex", "LOCATION_NOTE": "Conference Room, Second Floor", "GlobalID": "{D6DA7D62-D85A-4418-8152-8E4F8A0A7C5A}", "EditDate": null, "Sort": 20, "created_date": null, "last_edited_date": 1651669610000}, "type": "Point", "coordinates": [63461, 32084], "id": 5}, {"properties": {"OBJECTID": 6, "Address": "85 Oxford St", "W_P": "7-1", "LOCATION": "Baldwin School", "LOCATION_NOTE": "Community Floor, Sacramento Street Entrance", "GlobalID": "{40F0EDE4-6685-46B8-8D34-309DBF4C0D31}", "EditDate": "2022", "Sort": 24, "created_date": null, "last_edited_date": 1663275449000}, "type": "Point", "coordinates": [46785, 59645], "id": 6}, {"properties": {"OBJECTID": 7, "Address": "85 Oxford St", "W_P": "7-2", "LOCATION": "Baldwin School", "LOCATION_NOTE": "Community Floor, Sacramento Street Entrance", "GlobalID": "{AD2687EE-4C1C-4B29-98DF-018782433B72}", "EditDate": "2022", "Sort": 25, "created_date": null, "last_edited_date": 1663275454000}, "type": "Point", "coordinates": [46785, 59645], "id": 7}, {"properties": {"OBJECTID": 8, "Address": "44 Linnaean St", "W_P": "8-1", "LOCATION": "Graham and Parks School", "LOCATION_NOTE": "Playground Entrance", "GlobalID": "{0BD64C98-D63C-498C-A5B7-A94C035262DE}", "EditDate": "2018", "Sort": 28, "created_date": null, "last_edited_date": 1651674091000}, "type": "Point", "coordinates": [37854, 60151], "id": 8}, {"properties": {"OBJECTID": 9, "Address": "5 Longfellow Park", "W_P": "8-2", "LOCATION": "Friends Center", "LOCATION_NOTE": "Community Room", "GlobalID": "{465548B3-CC55-4E2D-BF65-FEE03F41476E}", "EditDate": null, "Sort": 29, "created_date": null, "last_edited_date": 1651669610000}, "type": "Point", "coordinates": [33328, 45239], "id": 9}, {"properties": {"OBJECTID": 10, "Address": "44 Linnaean St", "W_P": "10-2", "LOCATION": "Graham and Parks School", "LOCATION_NOTE": "Playground Entrance", "GlobalID": "{6A0AB9AD-4C56-49E5-9EDC-5D1CA2369913}", "EditDate": "2018", "Sort": 36, "created_date": null, "last_edited_date": 1651674091000}, "type": "Point", "coordinates": [37854, 60151], "id": 10}, {"properties": {"OBJECTID": 11, "Address": "826 Cambridge St", "W_P": "2-1", "LOCATION": "Valente Library", "LOCATION_NOTE": "Side Entrance on Berkshire Street", "GlobalID": "{24BD3C56-B367-4D72-A53E-65978990530A}", "EditDate": "2022", "Sort": 5, "created_date": null, "last_edited_date": 1651669610000}, "type": "Point", "coordinates": [79664, 36603], "id": 11}, {"properties": {"OBJECTID": 12, "Address": "102 Putnam Ave", "W_P": "4-3", "LOCATION": "Martin Luther King, Jr. School ", "LOCATION_NOTE": "Playground Gym Entrance ", "GlobalID": "{2EEBAACF-5537-4924-8516-52B50CB8A1CB}", "EditDate": "2020", "Sort": 16, "created_date": 1595255850000, "last_edited_date": 1651669610000}, "type": "Point", "coordinates": [51283, 24832], "id": 12}, {"properties": {"OBJECTID": 13, "Address": "459 Broadway ", "W_P": "6-3", "LOCATION": "Cambridge Rindge School", "LOCATION_NOTE": "Media Cafeteria, Cambridge Street Entrance", "GlobalID": "{7C596C2B-BA0D-488A-AC90-2136D343EF51}", "EditDate": "2020", "Sort": 23, "created_date": 1595256337000, "last_edited_date": 1651674764000}, "type": "Point", "coordinates": [53185, 41608], "id": 13}, {"properties": {"OBJECTID": 14, "Address": "170 Rindge Ave", "W_P": "11-1", "LOCATION": "Reservoir Church ", "LOCATION_NOTE": "Rear Entrance", "GlobalID": "{B74BF8C7-5689-44CE-B74F-CE82270B8CA3}", "EditDate": "2020", "Sort": 38, "created_date": 1595258776000, "last_edited_date": 1651669610000}, "type": "Point", "coordinates": [28310, 83674], "id": 14}, {"properties": {"OBJECTID": 15, "Address": "40 Granite St", "W_P": "4-1", "LOCATION": "Morse School ", "LOCATION_NOTE": "Main Entrance ", "GlobalID": "{842B05AE-B2C3-445C-844F-D55098D9617D}", "EditDate": "2022", "Sort": 13, "created_date": 1595256046000, "last_edited_date": 1651669610000}, "type": "Point", "coordinates": [51820, 0], "id": 15}, {"properties": {"OBJECTID": 16, "Address": "70 Rindge Ave", "W_P": "10-1", "LOCATION": "Peabody School", "LOCATION_NOTE": "Rear Entrance ", "GlobalID": "{6BA210E5-1AC7-4292-9F7E-CC0317F51B8D}", "EditDate": "2020", "Sort": 34, "created_date": 1595258453000, "last_edited_date": 1651669610000}, "type": "Point", "coordinates": [32376, 80685], "id": 16}, {"properties": {"OBJECTID": 17, "Address": "102 Putnam Ave", "W_P": "8-3", "LOCATION": "Martin Luther King, Jr. School ", "LOCATION_NOTE": "Playground Gym Entrance ", "GlobalID": "{AD438B5B-14AC-45B7-AB12-8F258271370B}", "EditDate": "2020", "Sort": 30, "created_date": 1595874334000, "last_edited_date": 1651669610000}, "type": "Point", "coordinates": [51283, 24832], "id": 17}, {"properties": {"OBJECTID": 18, "Address": "70 Rindge Ave", "W_P": "10-1A", "LOCATION": "Peabody School Gym ", "LOCATION_NOTE": "Rear Entrance ", "GlobalID": "{CAF1AABE-6E6C-4DDB-B3FD-3389F9C30303}", "EditDate": "2022", "Sort": 35, "created_date": 1597242946000, "last_edited_date": 1651669610000}, "type": "Point", "coordinates": [32376, 80685], "id": 18}, {"properties": {"OBJECTID": 19, "Address": "40 Granite St", "W_P": "5-3", "LOCATION": "Morse School", "LOCATION_NOTE": "Main Entrance ", "GlobalID": "{9F4AF4AF-2B1F-4D34-8832-25062B6A4835}", "EditDate": "2020", "Sort": 19, "created_date": 1597243098000, "last_edited_date": 1651669610000}, "type": "Point", "coordinates": [51820, 0], "id": 19}, {"properties": {"OBJECTID": 20, "Address": "250 Fresh Pond Pkwy", "W_P": "9-2", "LOCATION": "Cambridge Water Department", "LOCATION_NOTE": "", "GlobalID": "{F001F157-7ACD-4228-9BA6-99B21C6F6095}", "EditDate": "2021", "Sort": 32, "created_date": null, "last_edited_date": 1651669610000}, "type": "Point", "coordinates": [12858, 62136], "id": 20}, {"properties": {"OBJECTID": 21, "Address": "50 Churchill Ave", "W_P": "11-3", "LOCATION": "Burns Apartments", "LOCATION_NOTE": "Community Room", "GlobalID": "{7E83F248-5C0A-4FAE-947C-0578C931EE63}", "EditDate": "2026", "Sort": 41, "created_date": 1595873806000, "last_edited_date": 1779900117000}, "type": "Point", "coordinates": [27263, 99999], "id": 21}, {"properties": {"OBJECTID": 22, "Address": "680 Huron Ave", "W_P": "9-3", "LOCATION": "Russell Youth Center", "LOCATION_NOTE": "Second Floor", "GlobalID": "{3E5A06C3-87C6-4BD1-9809-524A5ADB1B30}", "EditDate": "2021", "Sort": 33, "created_date": 1595258297000, "last_edited_date": 1651669610000}, "type": "Point", "coordinates": [0, 55711], "id": 22}, {"properties": {"OBJECTID": 23, "Address": "795 Massachusetts Ave", "W_P": "3-3A", "LOCATION": "City Hall", "LOCATION_NOTE": "Driveway Entrance", "GlobalID": "{F205DA90-2C72-447D-B34C-970D6A5EEEDA}", "EditDate": "2022", "Sort": 12, "created_date": 1650912357000, "last_edited_date": 1651669610000}, "type": "Point", "coordinates": [60694, 25623], "id": 23}, {"properties": {"OBJECTID": 24, "Address": "344 Broadway", "W_P": "6-1A", "LOCATION": "City Hall Annex", "LOCATION_NOTE": "Conference Room, Second Floor", "GlobalID": "{687F5E81-A1C7-4B05-9AE4-EB84A13D4F22}", "EditDate": "2022", "Sort": 21, "created_date": 1650912357000, "last_edited_date": 1651669610000}, "type": "Point", "coordinates": [63461, 32084], "id": 24}, {"properties": {"OBJECTID": 25, "Address": "85 Oxford St", "W_P": "7-2A", "LOCATION": "Baldwin School", "LOCATION_NOTE": "Community Floor, Sacramento Street Entrance", "GlobalID": "{CD4D13DE-83AF-4737-A5F1-D25252F1F009}", "EditDate": "2022", "Sort": 26, "created_date": 1650912357000, "last_edited_date": 1663275486000}, "type": "Point", "coordinates": [46785, 59645], "id": 25}, {"properties": {"OBJECTID": 26, "Address": "170 Rindge Ave", "W_P": "11-1A", "LOCATION": "Reservoir Church ", "LOCATION_NOTE": "Rear Entrance", "GlobalID": "{77213FEC-59C5-4953-9A66-1CD09C4C1AE0}", "EditDate": "2022", "Sort": 39, "created_date": 1650912357000, "last_edited_date": 1651669610000}, "type": "Point", "coordinates": [28310, 83674], "id": 26}, {"properties": {"OBJECTID": 27, "Address": "170 Rindge Ave", "W_P": "11-2", "LOCATION": "Reservoir Church ", "LOCATION_NOTE": "Rear Entrance", "GlobalID": "{88E5E1A1-DA5F-4FAE-BE61-006DF9BD1BFB}", "EditDate": "2022", "Sort": 40, "created_date": 1650912357000, "last_edited_date": 1651669610000}, "type": "Point", "coordinates": [28310, 83674], "id": 27}, {"properties": {"OBJECTID": 28, "Address": "50 Churchill Ave", "W_P": "11-3A", "LOCATION": "Burns Apartments", "LOCATION_NOTE": "Community Room", "GlobalID": "{8B17B04C-62F8-4477-BE78-72FECEF6531F}", "EditDate": "2026", "Sort": 42, "created_date": 1650912357000, "last_edited_date": 1779900120000}, "type": "Point", "coordinates": [27263, 99999], "id": 28}, {"properties": {"OBJECTID": 29, "Address": "66 Sherman Street", "W_P": "10-3", "LOCATION": "Cadbury Commons", "LOCATION_NOTE": "Patio Entrance on Cadbury Rd", "GlobalID": "{3F3CA2CE-59B5-4BD1-83C0-2D908268C796}", "EditDate": "2022", "Sort": 37, "created_date": 1631560216000, "last_edited_date": 1689187083000}, "type": "Point", "coordinates": [28068, 71168], "id": 29}, {"properties": {"OBJECTID": 30, "Address": "222 Jacobs Street", "W_P": "1-1", "LOCATION": "222 Jacobs Street", "LOCATION_NOTE": "Conference Center", "GlobalID": "{834844B7-90FD-47BE-B606-C069EA734716}", "EditDate": "2022", "Sort": 1, "created_date": 1658499245000, "last_edited_date": 1673359773000}, "type": "Point", "coordinates": [99999, 37539], "id": 30}, {"properties": {"OBJECTID": 31, "Address": "48 Sixth Street", "W_P": "2-3", "LOCATION": "O\u00e2\u20ac\u2122Connell Branch Library", "LOCATION_NOTE": "Corner of Thorndike Street, Rear Entrance", "GlobalID": "{F495D2B8-5E0F-430F-8D69-D0932D08C3DB}", "EditDate": "2022", "Sort": 7, "created_date": 1629745616000, "last_edited_date": 1660758611000}, "type": "Point", "coordinates": [86836, 33145], "id": 31}, {"properties": {"OBJECTID": 32, "Address": "48 Sixth Street", "W_P": "2-3A", "LOCATION": "O\u00e2\u20ac\u2122Connell Branch Library", "LOCATION_NOTE": "Corner of Thorndike Street, Rear Entrance", "GlobalID": "{4B54DA5F-2A93-4568-898B-0950B84146D6}", "EditDate": "2022", "Sort": 8, "created_date": 1650912357000, "last_edited_date": 1660758616000}, "type": "Point", "coordinates": [86836, 33145], "id": 32}, {"properties": {"OBJECTID": 33, "Address": "25 Eighth Street", "W_P": "2-2", "LOCATION": "Truman Apartments", "LOCATION_NOTE": "Community Room Thorndike Street Entrance", "GlobalID": "{2A39BFFD-9F0D-4037-AC22-4545707B88F7}", "EditDate": "2022", "Sort": 6, "created_date": 1595255363000, "last_edited_date": 1660758608000}, "type": "Point", "coordinates": [84740, 33758], "id": 33}, {"properties": {"OBJECTID": 34, "Address": "145 Brattle Street", "W_P": "9-1", "LOCATION": "Holy Trinity Armenian Church", "LOCATION_NOTE": "Parking Lot Entrance on Sparks Street", "GlobalID": "{0A3A8C04-43CC-454D-AF24-58231ADBB55F}", "EditDate": "2022", "Sort": 31, "created_date": 1595258064000, "last_edited_date": 1686606648000}, "type": "Point", "coordinates": [29070, 50543], "id": 34}, {"properties": {"OBJECTID": 35, "Address": "459 Broadway ", "W_P": "6-2", "LOCATION": "Cambridge Rindge School", "LOCATION_NOTE": "Media Cafeteria, Cambridge Street Entrance", "GlobalID": "{975AF5D6-F5C4-4278-9274-32671F022638}", "EditDate": "2020", "Sort": 22, "created_date": 1595256238000, "last_edited_date": 1720633291000}, "type": "Point", "coordinates": [53236, 41737], "id": 35}, {"properties": {"OBJECTID": 36, "Address": "48 Quincy St", "W_P": "7-3", "LOCATION": "Gund Hall", "LOCATION_NOTE": "Cambridge St. Entrance", "GlobalID": "{E4F46AD7-3910-4E09-98B6-13BBF6436A3D}", "EditDate": "2026", "Sort": 27, "created_date": 1727185255000, "last_edited_date": 1779898855000}, "type": "Point", "coordinates": [50079, 45286], "id": 36}, {"properties": {"OBJECTID": 37, "Address": "838 Massachusetts Ave", "W_P": "4-2", "LOCATION": "Saint Peter's Episcopal Church", "LOCATION_NOTE": "Entrance on Sellers Street", "GlobalID": "{BAC3BC32-91E6-4883-AEAA-2EB99E4C1FBE}", "EditDate": "2026", "Sort": 14, "created_date": 1657732847000, "last_edited_date": 1783439839000}, "type": "Point", "coordinates": [58904, 25326], "id": 37}, {"properties": {"OBJECTID": 38, "Address": "838 Massachusetts Ave", "W_P": "4-2A", "LOCATION": "Saint Peter's Episcopal Church", "LOCATION_NOTE": "Entrance on Sellers Street", "GlobalID": "{440481DE-64D9-4557-8665-9D6805500712}", "EditDate": "2026", "Sort": 15, "created_date": 1657732847000, "last_edited_date": 1783439871000}, "type": "Point", "coordinates": [58904, 25326], "id": 38}, {"properties": {"OBJECTID": 39, "Address": "239 Harvard St", "W_P": "3-2", "LOCATION": "Saint Bartholomew's Episcopal Church", "LOCATION_NOTE": "Next to Moses Youth Center. 2026 Elections Only", "GlobalID": "{39E192CF-EB02-4503-9ED3-4E89C9E14B5F}", "EditDate": "2026", "Sort": 10, "created_date": null, "last_edited_date": 1783439742000}, "type": "Point", "coordinates": [67098, 28004], "id": 39}, {"properties": {"OBJECTID": 40, "Address": "70 Massachusetts Ave", "W_P": "1-2", "LOCATION": "M.I.T. Kresge Auditorium", "LOCATION_NOTE": "Behind Stratton Center", "GlobalID": "{3CF27782-C9F6-4EB8-8FC6-885B6DACBC70}", "EditDate": "2026", "Sort": 2, "created_date": 1779826563000, "last_edited_date": 1789402273000}, "type": "Point", "coordinates": [74097, 5732], "id": 40}, {"properties": {"OBJECTID": 41, "Address": "70 Massachusetts Ave", "W_P": "1-2A", "LOCATION": "M.I.T. Kresge Auditorium", "LOCATION_NOTE": "Behind Stratton Center", "GlobalID": "{0B98AA98-C4AB-48B7-9B45-5F9BB601D221}", "EditDate": "2026", "Sort": 3, "created_date": 1779827141000, "last_edited_date": 1789402328000}, "type": "Point", "coordinates": [74099, 5739], "id": 41}, {"properties": {"OBJECTID": 42, "Address": "70 Massachusetts Ave", "W_P": "5-2", "LOCATION": "M.I.T. Kresge Auditorium", "LOCATION_NOTE": "Behind Stratton Center", "GlobalID": "{054BB923-AE59-4783-873D-FE142B8F043E}", "EditDate": "2026", "Sort": 18, "created_date": 1779827630000, "last_edited_date": 1789402264000}, "type": "Point", "coordinates": [74095, 5731], "id": 42}], "type": "GeometryCollection"}}, "bbox": [-71.1538403271125, 42.35558857148551, -71.07444929162754, 42.400441515253696], "transform": {"scale": [7.93918294032541e-07, 4.4853392302107185e-07], "translate": [-71.1538403271125, 42.35558857148551]}, "arcs": []}