{"type":"FeatureCollection","features":[{"geometry": {"type": "Point", "coordinates": [-71.08758323714689, 42.37214237912796]}, "type": "Feature", "id": 1, "properties": {"Sort": 4, "GlobalID": "{814D2D6F-B537-43BD-9903-A2122B796D06}", "LOCATION_NOTE": "Cambridge Street Entrance", "LOCATION": "Miller River Apartments", "Address": "15 Lambert St", "last_edited_date": "2022-05-04", "W_P": "1-3"}},{"geometry": {"type": "Point", "coordinates": [-71.09453782281788, 42.364743051090976]}, "type": "Feature", "id": 2, "properties": {"Sort": 9, "GlobalID": "{23B8A3EB-DAD7-45B9-BADD-A23A2733A7E7}", "EditDate": "2022", "LOCATION": "Pisani Center", "Address": "131 Washington St", "last_edited_date": "2022-05-04", "W_P": "3-1"}},{"geometry": {"type": "Point", "coordinates": [-71.10048986788125, 42.362972762669536]}, "type": "Feature", "id": 3, "properties": {"Sort": 17, "GlobalID": "{015824C3-0BEE-4637-A66F-7A692BA30740}", "EditDate": "2022", "LOCATION": "Salvation Army Headquarters", "Address": "402 Massachusetts Ave", "last_edited_date": "2022-05-04", "W_P": "5-1"}},{"geometry": {"type": "Point", "coordinates": [-71.105654001264, 42.367081294336465]}, "type": "Feature", "id": 4, "properties": {"Sort": 11, "GlobalID": "{53E3752F-A763-4CF5-9898-3B4F6B5685E3}", "EditDate": "2022", "LOCATION_NOTE": "Driveway Entrance", "LOCATION": "City Hall", "Address": "795 Massachusetts Ave", "last_edited_date": "2022-05-04", "W_P": "3-3"}},{"geometry": {"type": "Point", "coordinates": [-71.10345736580716, 42.3699791446332]}, "type": "Feature", "id": 5, "properties": {"Sort": 20, "GlobalID": "{B13B274B-D96F-47BE-8BAB-E4E87F9D45DD}", "LOCATION_NOTE": "Conference Room, Second Floor", "LOCATION": "City Hall Annex", "Address": "344 Broadway", "last_edited_date": "2022-05-04", "W_P": "6-1"}},{"geometry": {"type": "Point", "coordinates": [-71.1166967203226, 42.38234125434476]}, "type": "Feature", "id": 6, "properties": {"Sort": 24, "GlobalID": "{8928204D-64D3-4CFB-9B48-C3DEDCB0E73E}", "EditDate": "2022", "LOCATION_NOTE": "Community Floor, Sacramento Street Entrance", "LOCATION": "Baldwin School", "Address": "85 Oxford St", "last_edited_date": "2022-09-15", "W_P": "7-1"}},{"geometry": {"type": "Point", "coordinates": [-71.1166967203226, 42.38234125434476]}, "type": "Feature", "id": 7, "properties": {"Sort": 25, "GlobalID": "{4FB83490-36BC-4D2A-B72D-3DAD0F6153E5}", "EditDate": "2022", "LOCATION_NOTE": "Community Floor, Sacramento Street Entrance", "LOCATION": "Baldwin School", "Address": "85 Oxford St", "last_edited_date": "2022-09-15", "W_P": "7-2"}},{"geometry": {"type": "Point", "coordinates": [-71.12378757718044, 42.38256829711779]}, "type": "Feature", "id": 8, "properties": {"Sort": 28, "GlobalID": "{1123D56E-5A6D-4418-A40E-D51DD6C965CE}", "EditDate": "2018", "LOCATION_NOTE": "Playground Entrance", "LOCATION": "Graham and Parks School", "Address": "44 Linnaean St", "last_edited_date": "2022-05-04", "W_P": "8-1"}},{"geometry": {"type": "Point", "coordinates": [-71.1273804699072, 42.37587988161698]}, "type": "Feature", "id": 9, "properties": {"Sort": 29, "GlobalID": "{25831D58-8F30-47FB-B9D2-F18F3C49CFD5}", "LOCATION_NOTE": "Community Room", "LOCATION": "Friends Center", "Address": "5 Longfellow Park", "last_edited_date": "2022-05-04", "W_P": "8-2"}},{"geometry": {"type": "Point", "coordinates": [-71.12378757718044, 42.38256829711779]}, "type": "Feature", "id": 10, "properties": {"Sort": 36, "GlobalID": "{73117D92-CF83-4881-9D06-006B88A9A4CF}", "EditDate": "2018", "LOCATION_NOTE": "Playground Entrance", "LOCATION": "Graham and Parks School", "Address": "44 Linnaean St", "last_edited_date": "2022-05-04", "W_P": "10-2"}},{"geometry": {"type": "Point", "coordinates": [-71.09059327420894, 42.3720062856651]}, "type": "Feature", "id": 11, "properties": {"Sort": 5, "GlobalID": "{DE0542B4-0730-4F54-8362-3F4FC36E9494}", "EditDate": "2022", "LOCATION_NOTE": "Side Entrance on Berkshire Street", "LOCATION": "Valente Library", "Address": "826 Cambridge St", "last_edited_date": "2022-05-04", "W_P": "2-1"}},{"geometry": {"type": "Point", "coordinates": [-71.11312603069585, 42.36672634600492]}, "type": "Feature", "id": 12, "properties": {"Sort": 16, "GlobalID": "{AAEF348F-771E-47D4-BF8E-9B59B89165E6}", "EditDate": "2020", "Address": "102 Putnam Ave", "LOCATION_NOTE": "Playground Gym Entrance", "LOCATION": "Martin Luther King, Jr. School", "created_date": "2020-07-20", "last_edited_date": "2022-05-04", "W_P": "4-3"}},{"geometry": {"type": "Point", "coordinates": [-71.11161583323687, 42.374251117363784]}, "type": "Feature", "id": 13, "properties": {"Sort": 23, "GlobalID": "{16904C2B-508A-4B95-96E1-A990A6B3118B}", "EditDate": "2020", "Address": "459 Broadway", "LOCATION_NOTE": "Media Cafeteria, Cambridge Street Entrance", "LOCATION": "Cambridge Rindge School", "created_date": "2020-07-20", "last_edited_date": "2022-05-04", "W_P": "6-3"}},{"geometry": {"type": "Point", "coordinates": [-71.13136444906229, 42.39311938374095]}, "type": "Feature", "id": 14, "properties": {"Sort": 38, "GlobalID": "{23A97B8A-4C2E-4A1A-A985-2D2FD0F63C9C}", "EditDate": "2020", "Address": "170 Rindge Ave", "LOCATION_NOTE": "Rear Entrance", "LOCATION": "Reservoir Church", "created_date": "2020-07-20", "last_edited_date": "2022-05-04", "W_P": "11-1"}},{"geometry": {"type": "Point", "coordinates": [-71.11269919895821, 42.35558857148553]}, "type": "Feature", "id": 15, "properties": {"Sort": 13, "GlobalID": "{B60D5243-6DAF-4CD3-AB3D-05905373863C}", "EditDate": "2022", "Address": "40 Granite St", "LOCATION_NOTE": "Main Entrance", "LOCATION": "Morse School", "created_date": "2020-07-20", "last_edited_date": "2022-05-04", "W_P": "4-1"}},{"geometry": {"type": "Point", "coordinates": [-71.12813678814891, 42.39177841000649]}, "type": "Feature", "id": 16, "properties": {"Sort": 34, "GlobalID": "{9C8BAAEB-65BD-476E-A9AD-56B9B21A8847}", "EditDate": "2020", "Address": "70 Rindge Ave", "LOCATION_NOTE": "Rear Entrance", "LOCATION": "Peabody School", "created_date": "2020-07-20", "last_edited_date": "2022-05-04", "W_P": "10-1"}},{"geometry": {"type": "Point", "coordinates": [-71.11312603069585, 42.36672634600492]}, "type": "Feature", "id": 17, "properties": {"Sort": 30, "GlobalID": "{F7D73CA9-3D25-4E80-960A-19B597FDEBE1}", "EditDate": "2020", "Address": "102 Putnam Ave", "LOCATION_NOTE": "Playground Gym Entrance", "LOCATION": "Martin Luther King, Jr. School", "created_date": "2020-07-27", "last_edited_date": "2022-05-04", "W_P": "8-3"}},{"geometry": {"type": "Point", "coordinates": [-71.12813678814891, 42.39177841000649]}, "type": "Feature", "id": 18, "properties": {"Sort": 35, "GlobalID": "{ABDA3928-D171-45A6-AFDB-0B0C36FE1329}", "EditDate": "2022", "Address": "70 Rindge Ave", "LOCATION_NOTE": "Rear Entrance", "LOCATION": "Peabody School Gym", "created_date": "2020-08-12", "last_edited_date": "2022-05-04", "W_P": "10-1A"}},{"geometry": {"type": "Point", "coordinates": [-71.11269919895821, 42.35558857148553]}, "type": "Feature", "id": 19, "properties": {"Sort": 19, "GlobalID": "{52948E0A-D004-4565-A27A-F6D494BB0181}", "EditDate": "2020", "Address": "40 Granite St", "LOCATION_NOTE": "Main Entrance", "LOCATION": "Morse School", "created_date": "2020-08-12", "last_edited_date": "2022-05-04", "W_P": "5-3"}},{"geometry": {"type": "Point", "coordinates": [-71.14363232557935, 42.38345863863467]}, "type": "Feature", "id": 20, "properties": {"Sort": 32, "GlobalID": "{2B554012-4158-4153-ACE0-497CB04FEA16}", "EditDate": "2021", "LOCATION": "Cambridge Water Department", "Address": "250 Fresh Pond Pkwy", "last_edited_date": "2022-05-04", "W_P": "9-2"}},{"geometry": {"type": "Point", "coordinates": [-71.13219588693711, 42.400441515253696]}, "type": "Feature", "id": 21, "properties": {"Sort": 41, "GlobalID": "{1E2C4660-E525-40DB-AE1E-C51A09B5C8D5}", "EditDate": "2026", "Address": "50 Churchill Ave", "LOCATION_NOTE": "Community Room", "LOCATION": "Burns Apartments", "created_date": "2020-07-27", "last_edited_date": "2026-05-27", "W_P": "11-3"}},{"geometry": {"type": "Point", "coordinates": [-71.1538403271125, 42.380576663254786]}, "type": "Feature", "id": 22, "properties": {"Sort": 33, "GlobalID": "{48F341B6-623F-4C49-AED4-65E70A307DF3}", "EditDate": "2021", "Address": "680 Huron Ave", "LOCATION_NOTE": "Second Floor", "LOCATION": "Russell Youth Center", "created_date": "2020-07-20", "last_edited_date": "2022-05-04", "W_P": "9-3"}},{"geometry": {"type": "Point", "coordinates": [-71.105654001264, 42.367081294336465]}, "type": "Feature", "id": 23, "properties": {"Sort": 12, "GlobalID": "{6AD28088-1F41-46EA-9FFF-E78E54739F33}", "EditDate": "2022", "Address": "795 Massachusetts Ave", "LOCATION_NOTE": "Driveway Entrance", "LOCATION": "City Hall", "created_date": "2022-04-25", "last_edited_date": "2022-05-04", "W_P": "3-3A"}},{"geometry": {"type": "Point", "coordinates": [-71.10345736580716, 42.3699791446332]}, "type": "Feature", "id": 24, "properties": {"Sort": 21, "GlobalID": "{E1F82190-A38A-4B76-8B95-B015559DC895}", "EditDate": "2022", "Address": "344 Broadway", "LOCATION_NOTE": "Conference Room, Second Floor", "LOCATION": "City Hall Annex", "created_date": "2022-04-25", "last_edited_date": "2022-05-04", "W_P": "6-1A"}},{"geometry": {"type": "Point", "coordinates": [-71.1166967203226, 42.38234125434476]}, "type": "Feature", "id": 25, "properties": {"Sort": 26, "GlobalID": "{FFC0C14A-084F-476F-A8F2-98AC624C3824}", "EditDate": "2022", "Address": "85 Oxford St", "LOCATION_NOTE": "Community Floor, Sacramento Street Entrance", "LOCATION": "Baldwin School", "created_date": "2022-04-25", "last_edited_date": "2022-09-15", "W_P": "7-2A"}},{"geometry": {"type": "Point", "coordinates": [-71.13136444906229, 42.39311938374095]}, "type": "Feature", "id": 26, "properties": {"Sort": 39, "GlobalID": "{C8530ACB-AC84-4797-B644-78BEE2839ABF}", "EditDate": "2022", "Address": "170 Rindge Ave", "LOCATION_NOTE": "Rear Entrance", "LOCATION": "Reservoir Church", "created_date": "2022-04-25", "last_edited_date": "2022-05-04", "W_P": "11-1A"}},{"geometry": {"type": "Point", "coordinates": [-71.13136444906229, 42.39311938374095]}, "type": "Feature", "id": 27, "properties": {"Sort": 40, "GlobalID": "{9A7B3C21-2696-47C3-9F0C-736F6CA0E93A}", "EditDate": "2022", "Address": "170 Rindge Ave", "LOCATION_NOTE": "Rear Entrance", "LOCATION": "Reservoir Church", "created_date": "2022-04-25", "last_edited_date": "2022-05-04", "W_P": "11-2"}},{"geometry": {"type": "Point", "coordinates": [-71.13219588693711, 42.400441515253696]}, "type": "Feature", "id": 28, "properties": {"Sort": 42, "GlobalID": "{91C29B6F-BE1B-4779-8CE9-7303F19E4B4D}", "EditDate": "2026", "Address": "50 Churchill Ave", "LOCATION_NOTE": "Community Room", "LOCATION": "Burns Apartments", "created_date": "2022-04-25", "last_edited_date": "2026-05-27", "W_P": "11-3A"}},{"geometry": {"type": "Point", "coordinates": [-71.1315568095074, 42.38751004052695]}, "type": "Feature", "id": 29, "properties": {"Sort": 37, "GlobalID": "{E2E065A0-877E-4B80-879A-3EB68134149B}", "EditDate": "2022", "Address": "66 Sherman Street", "LOCATION_NOTE": "Patio Entrance on Cadbury Rd", "LOCATION": "Cadbury Commons", "created_date": "2021-09-13", "last_edited_date": "2023-07-12", "W_P": "10-3"}},{"geometry": {"type": "Point", "coordinates": [-71.07444929162754, 42.37242588988289]}, "type": "Feature", "id": 30, "properties": {"Sort": 1, "GlobalID": "{2467CF72-28D7-4458-AD54-993B85482256}", "EditDate": "2022", "Address": "222 Jacobs Street", "LOCATION_NOTE": "Conference Center", "LOCATION": "222 Jacobs Street", "created_date": "2022-07-22", "last_edited_date": "2023-01-10", "W_P": "1-1"}},{"geometry": {"type": "Point", "coordinates": [-71.08489961080684, 42.37045544051025]}, "type": "Feature", "id": 31, "properties": {"Sort": 7, "GlobalID": "{1E3425DF-6001-4517-A1F0-7D7C3DBE3BA5}", "EditDate": "2022", "Address": "48 Sixth Street", "LOCATION_NOTE": "Corner of Thorndike Street, Rear Entrance", "LOCATION": "O\u2019Connell Branch Library", "created_date": "2021-08-23", "last_edited_date": "2022-08-17", "W_P": "2-3"}},{"geometry": {"type": "Point", "coordinates": [-71.08489961080684, 42.37045544051025]}, "type": "Feature", "id": 32, "properties": {"Sort": 8, "GlobalID": "{70672781-681F-4336-AA6A-7B647070C6EA}", "EditDate": "2022", "Address": "48 Sixth Street", "LOCATION_NOTE": "Corner of Thorndike Street, Rear Entrance", "LOCATION": "O\u2019Connell Branch Library", "created_date": "2022-04-25", "last_edited_date": "2022-08-17", "W_P": "2-3A"}},{"geometry": {"type": "Point", "coordinates": [-71.08656379992648, 42.37073015743247]}, "type": "Feature", "id": 33, "properties": {"Sort": 6, "GlobalID": "{2B9AF97B-B885-492D-9C53-51DE7B9C7320}", "EditDate": "2022", "Address": "25 Eighth Street", "LOCATION_NOTE": "Community Room Thorndike Street Entrance", "LOCATION": "Truman Apartments", "created_date": "2020-07-20", "last_edited_date": "2022-08-17", "W_P": "2-2"}},{"geometry": {"type": "Point", "coordinates": [-71.13076140700886, 42.37825869921222]}, "type": "Feature", "id": 34, "properties": {"Sort": 31, "GlobalID": "{385D45D2-9B37-4207-8137-C61DA943C7F7}", "EditDate": "2022", "Address": "145 Brattle Street", "LOCATION_NOTE": "Parking Lot Entrance on Sparks Street", "LOCATION": "Holy Trinity Armenian Church", "created_date": "2020-07-20", "last_edited_date": "2023-06-12", "W_P": "9-1"}},{"geometry": {"type": "Point", "coordinates": [-71.11157509141758, 42.37430898179257]}, "type": "Feature", "id": 35, "properties": {"Sort": 22, "GlobalID": "{5D1EF9D2-DA4F-49CA-B820-3917BDA43AEF}", "EditDate": "2020", "Address": "459 Broadway", "LOCATION_NOTE": "Media Cafeteria, Cambridge Street Entrance", "LOCATION": "Cambridge Rindge School", "created_date": "2020-07-20", "last_edited_date": "2024-07-10", "W_P": "6-2"}},{"geometry": {"type": "Point", "coordinates": [-71.11408163749535, 42.37590082410276]}, "type": "Feature", "id": 36, "properties": {"Sort": 27, "GlobalID": "{73A31DA8-EC41-4504-8D75-62A94AA89325}", "EditDate": "2026", "Address": "48 Quincy St", "LOCATION_NOTE": "Cambridge St. Entrance", "LOCATION": "Gund Hall", "created_date": "2024-09-24", "last_edited_date": "2026-05-27", "W_P": "7-3"}},{"geometry": {"type": "Point", "coordinates": [-71.10707515568711, 42.36694807418223]}, "type": "Feature", "id": 37, "properties": {"Sort": 14, "GlobalID": "{5E33AD8A-3D3F-4A70-BB6B-7CD871CCE5A1}", "EditDate": "2026", "Address": "838 Massachusetts Ave", "LOCATION_NOTE": "Entrance on Sellers Street", "LOCATION": "Saint Peter's Episcopal Church", "created_date": "2022-07-13", "last_edited_date": "2026-07-07", "W_P": "4-2"}},{"geometry": {"type": "Point", "coordinates": [-71.10707515568711, 42.36694807418223]}, "type": "Feature", "id": 38, "properties": {"Sort": 15, "GlobalID": "{3B81685F-FC6A-4209-9ED5-6CD83F88E4FD}", "EditDate": "2026", "Address": "838 Massachusetts Ave", "LOCATION_NOTE": "Entrance on Sellers Street", "LOCATION": "Saint Peter's Episcopal Church", "created_date": "2022-07-13", "last_edited_date": "2026-07-07", "W_P": "4-2A"}},{"geometry": {"type": "Point", "coordinates": [-71.10056962303415, 42.368149280602545]}, "type": "Feature", "id": 39, "properties": {"Sort": 10, "GlobalID": "{6B89C871-658F-43F5-8C56-CE87A508FDCC}", "EditDate": "2026", "LOCATION_NOTE": "Next to Moses Youth Center. 2026 Elections Only", "LOCATION": "Saint Bartholomew's Episcopal Church", "Address": "239 Harvard St", "last_edited_date": "2026-07-07", "W_P": "3-2"}},{"geometry": {"type": "Point", "coordinates": [-71.09501334538746, 42.35815937762045]}, "type": "Feature", "id": 40, "properties": {"Sort": 2, "GlobalID": "{83CBCEB8-EB77-4CCC-9DFD-3A9399AABA1C}", "EditDate": "2026", "Address": "70 Massachusetts Ave", "LOCATION_NOTE": "Behind Stratton Center", "LOCATION": "M.I.T. Kresge Auditorium", "created_date": "2026-05-26", "last_edited_date": "2026-09-14", "W_P": "1-2"}},{"geometry": {"type": "Point", "coordinates": [-71.09501187887494, 42.35816251529178]}, "type": "Feature", "id": 41, "properties": {"Sort": 3, "GlobalID": "{87699E93-006A-4FC5-92E2-9190531E0E70}", "EditDate": "2026", "Address": "70 Massachusetts Ave", "LOCATION_NOTE": "Behind Stratton Center", "LOCATION": "M.I.T. Kresge Auditorium", "created_date": "2026-05-26", "last_edited_date": "2026-09-14", "W_P": "1-2A"}},{"geometry": {"type": "Point", "coordinates": [-71.09501498051927, 42.35815933964463]}, "type": "Feature", "id": 42, "properties": {"Sort": 18, "GlobalID": "{7D1468B4-5DE6-4AAD-909A-228D1916CB6E}", "EditDate": "2026", "Address": "70 Massachusetts Ave", "LOCATION_NOTE": "Behind Stratton Center", "LOCATION": "M.I.T. Kresge Auditorium", "created_date": "2026-05-26", "last_edited_date": "2026-09-14", "W_P": "5-2"}}]}